{"type": "FeatureCollection", "features": [ {"type": "Feature", "properties": {"norad_id": 30740, "name": "FENGYUN 1C DEB", "group": "fengyun-1c-debris", "lat": -0.017982693080368345, "lon": 84.25853365975337, "alt_km": 744.5778900941641, "timestamp": "2025-12-05T09:41:19.408325+00:00", "meta": {"OBJECT_NAME": "FENGYUN 1C DEB", "OBJECT_ID": "1999-025ATA", "EPOCH": "2025-12-04T00:36:12.686976", "MEAN_MOTION": 14.51611435, "ECCENTRICITY": 0.00327765, "INCLINATION": 98.6906, "RA_OF_ASC_NODE": 82.8308, "ARG_OF_PERICENTER": 161.5202, "MEAN_ANOMALY": 198.719, "EPHEMERIS_TYPE": 0, "CLASSIFICATION_TYPE": "U", "NORAD_CAT_ID": 30740, "ELEMENT_SET_NO": 999, "REV_AT_EPOCH": 97521, "BSTAR": 0.0058557336, "MEAN_MOTION_DOT": 0.00023656, "MEAN_MOTION_DDOT": 0}, "tle": {"line1": "1 30740U 99025ATA 25338.02514684  .00023656  00000+0  58557-2 0  9993", "line2": "2 30740  98.6906  82.8308 0032776 161.5202 198.7190 14.51611435975215"}}, "geometry": {"type": "Point", "coordinates": [84.25853365975337, -0.017982693080368345]}}, {"type": "Feature", "properties": {"norad_id": 30741, "name": "FENGYUN 1C DEB", "group": "fengyun-1c-debris", "lat": 11.080005234011873, "lon": 170.60679908517008, "alt_km": 845.5797037043767, "timestamp": "2025-12-05T09:41:19.408335+00:00", "meta": {"OBJECT_NAME": "FENGYUN 1C DEB", "OBJECT_ID": "1999-025ATB", "EPOCH": "2025-12-04T07:27:26.995968", "MEAN_MOTION": 14.13226881, "ECCENTRICITY": 0.0006854, "INCLINATION": 98.6798, "RA_OF_ASC_NODE": 347.8326, "ARG_OF_PERICENTER": 138.0976, "MEAN_ANOMALY": 233.0487, "EPHEMERIS_TYPE": 0, "CLASSIFICATION_TYPE": "U", "NORAD_CAT_ID": 30741, "ELEMENT_SET_NO": 999, "REV_AT_EPOCH": 96700, "BSTAR": 0.00027503, "MEAN_MOTION_DOT": 4.72e-06, "MEAN_MOTION_DDOT": 0}, "tle": {"line1": "1 30741U 99025ATB 25338.31072912  .00000472  00000+0  27503-3 0  9998", "line2": "2 30741  98.6798 347.8326 0006854 138.0976 233.0487 14.13226881967009"}}, "geometry": {"type": "Point", "coordinates": [170.60679908517008, 11.080005234011873]}}, {"type": "Feature", "properties": {"norad_id": 30742, "name": "FENGYUN 1C DEB", "group": "fengyun-1c-debris", "lat": -61.980495492980246, "lon": -173.12455883056856, "alt_km": 814.4278932803854, "timestamp": "2025-12-05T09:41:19.408345+00:00", "meta": {"OBJECT_NAME": "FENGYUN 1C DEB", "OBJECT_ID": "1999-025ATC", "EPOCH": "2025-12-04T14:32:01.357728", "MEAN_MOTION": 14.10302278, "ECCENTRICITY": 0.007067, "INCLINATION": 98.8684, "RA_OF_ASC_NODE": 23.1498, "ARG_OF_PERICENTER": 249.6395, "MEAN_ANOMALY": 263.7604, "EPHEMERIS_TYPE": 0, "CLASSIFICATION_TYPE": "U", "NORAD_CAT_ID": 30742, "ELEMENT_SET_NO": 999, "REV_AT_EPOCH": 95927, "BSTAR": 0.0030847, "MEAN_MOTION_DOT": 5.56e-05, "MEAN_MOTION_DDOT": 0}, "tle": {"line1": "1 30742U 99025ATC 25338.60557127  .00005560  00000+0  30847-2 0  9994", "line2": "2 30742  98.8684  23.1498 0070670 249.6395 263.7604 14.10302278959274"}}, "geometry": {"type": "Point", "coordinates": [-173.12455883056856, -61.980495492980246]}}, {"type": "Feature", "properties": {"norad_id": 30744, "name": "FENGYUN 1C DEB", "group": "fengyun-1c-debris", "lat": 78.99643086410062, "lon": -3.010094218868432, "alt_km": 601.790241877613, "timestamp": "2025-12-05T09:41:19.408356+00:00", "meta": {"OBJECT_NAME": "FENGYUN 1C DEB", "OBJECT_ID": "1999-025ATE", "EPOCH": "2025-12-04T09:17:51.798912", "MEAN_MOTION": 14.88333464, "ECCENTRICITY": 0.0009829, "INCLINATION": 98.7319, "RA_OF_ASC_NODE": 123.6451, "ARG_OF_PERICENTER": 292.4272, "MEAN_ANOMALY": 121.8177, "EPHEMERIS_TYPE": 0, "CLASSIFICATION_TYPE": "U", "NORAD_CAT_ID": 30744, "ELEMENT_SET_NO": 999, "REV_AT_EPOCH": 97964, "BSTAR": 0.011751, "MEAN_MOTION_DOT": 0.00110488, "MEAN_MOTION_DDOT": 0}, "tle": {"line1": "1 30744U 99025ATE 25338.38740508  .00110488  00000+0  11751-1 0  9996", "line2": "2 30744  98.7319 123.6451 0009829 292.4272 121.8177 14.88333464979641"}}, "geometry": {"type": "Point", "coordinates": [-3.010094218868432, 78.99643086410062]}}, {"type": "Feature", "properties": {"norad_id": 30746, "name": "FENGYUN 1C DEB", "group": "fengyun-1c-debris", "lat": 52.53216980912537, "lon": -8.256155773075136, "alt_km": 823.0368774992176, "timestamp": "2025-12-05T09:41:19.408366+00:00", "meta": {"OBJECT_NAME": "FENGYUN 1C DEB", "OBJECT_ID": "1999-025ATG", "EPOCH": "2025-12-04T11:29:02.781024", "MEAN_MOTION": 14.27487319, "ECCENTRICITY": 0.0046421, "INCLINATION": 99.0576, "RA_OF_ASC_NODE": 158.7729, "ARG_OF_PERICENTER": 342.2543, "MEAN_ANOMALY": 72.0439, "EPHEMERIS_TYPE": 0, "CLASSIFICATION_TYPE": "U", "NORAD_CAT_ID": 30746, "ELEMENT_SET_NO": 999, "REV_AT_EPOCH": 97328, "BSTAR": 0.00081903, "MEAN_MOTION_DOT": 1.987e-05, "MEAN_MOTION_DDOT": 0}, "tle": {"line1": "1 30746U 99025ATG 25338.47850441  .00001987  00000+0  81903-3 0  9997", "line2": "2 30746  99.0576 158.7729 0046421 342.2543  72.0439 14.27487319973287"}}, "geometry": {"type": "Point", "coordinates": [-8.256155773075136, 52.53216980912537]}}, {"type": "Feature", "properties": {"norad_id": 30749, "name": "FENGYUN 1C DEB", "group": "fengyun-1c-debris", "lat": 46.44472323272446, "lon": -164.1073544321483, "alt_km": 910.2213864934456, "timestamp": "2025-12-05T09:41:19.408376+00:00", "meta": {"OBJECT_NAME": "FENGYUN 1C DEB", "OBJECT_ID": "1999-025ATK", "EPOCH": "2025-12-04T07:19:11.027136", "MEAN_MOTION": 13.99832184, "ECCENTRICITY": 0.0054879, "INCLINATION": 98.8881, "RA_OF_ASC_NODE": 5.3529, "ARG_OF_PERICENTER": 256.0876, "MEAN_ANOMALY": 103.418, "EPHEMERIS_TYPE": 0, "CLASSIFICATION_TYPE": "U", "NORAD_CAT_ID": 30749, "ELEMENT_SET_NO": 999, "REV_AT_EPOCH": 95848, "BSTAR": 0.00029577, "MEAN_MOTION_DOT": 3.96e-06, "MEAN_MOTION_DDOT": 0}, "tle": {"line1": "1 30749U 99025ATK 25338.30498874  .00000396  00000+0  29577-3 0  9992", "line2": "2 30749  98.8881   5.3529 0054879 256.0876 103.4180 13.99832184958487"}}, "geometry": {"type": "Point", "coordinates": [-164.1073544321483, 46.44472323272446]}}, {"type": "Feature", "properties": {"norad_id": 30750, "name": "FENGYUN 1C DEB", "group": "fengyun-1c-debris", "lat": 2.9971422125814935, "lon": 53.31907628632313, "alt_km": 813.0074214154974, "timestamp": "2025-12-05T09:41:19.408386+00:00", "meta": {"OBJECT_NAME": "FENGYUN 1C DEB", "OBJECT_ID": "1999-025ATL", "EPOCH": "2025-12-03T23:10:51.916224", "MEAN_MOTION": 14.28476797, "ECCENTRICITY": 0.00414801, "INCLINATION": 98.9213, "RA_OF_ASC_NODE": 52.321, "ARG_OF_PERICENTER": 125.0477, "MEAN_ANOMALY": 48.6248, "EPHEMERIS_TYPE": 0, "CLASSIFICATION_TYPE": "U", "NORAD_CAT_ID": 30750, "ELEMENT_SET_NO": 999, "REV_AT_EPOCH": 96656, "BSTAR": 0.0036826948, "MEAN_MOTION_DOT": 9.272e-05, "MEAN_MOTION_DDOT": 0}, "tle": {"line1": "1 30750U 99025ATL 25337.96587866  .00009272  00000+0  36827-2 0  9992", "line2": "2 30750  98.9213  52.3210 0041480 125.0477  48.6248 14.28476797966564"}}, "geometry": {"type": "Point", "coordinates": [53.31907628632313, 2.9971422125814935]}}, {"type": "Feature", "properties": {"norad_id": 30751, "name": "FENGYUN 1C DEB", "group": "fengyun-1c-debris", "lat": 81.07954812530173, "lon": -44.691682211462734, "alt_km": 800.5212324748645, "timestamp": "2025-12-05T09:41:19.408443+00:00", "meta": {"OBJECT_NAME": "FENGYUN 1C DEB", "OBJECT_ID": "1999-025ATM", "EPOCH": "2025-12-04T15:19:11.273088", "MEAN_MOTION": 14.15135596, "ECCENTRICITY": 0.005309, "INCLINATION": 98.8559, "RA_OF_ASC_NODE": 37.9007, "ARG_OF_PERICENTER": 119.3275, "MEAN_ANOMALY": 32.9185, "EPHEMERIS_TYPE": 0, "CLASSIFICATION_TYPE": "U", "NORAD_CAT_ID": 30751, "ELEMENT_SET_NO": 999, "REV_AT_EPOCH": 96161, "BSTAR": 0.0031223, "MEAN_MOTION_DOT": 6.102e-05, "MEAN_MOTION_DDOT": 0}, "tle": {"line1": "1 30751U 99025ATM 25338.63832492  .00006102  00000+0  31223-2 0  9990", "line2": "2 30751  98.8559  37.9007 0053090 119.3275  32.9185 14.15135596961614"}}, "geometry": {"type": "Point", "coordinates": [-44.691682211462734, 81.07954812530173]}}, {"type": "Feature", "properties": {"norad_id": 30753, "name": "FENGYUN 1C DEB", "group": "fengyun-1c-debris", "lat": -42.45714040890128, "lon": 26.274686706719706, "alt_km": 836.3370085201686, "timestamp": "2025-12-05T09:41:19.408458+00:00", "meta": {"OBJECT_NAME": "FENGYUN 1C DEB", "OBJECT_ID": "1999-025ATP", "EPOCH": "2025-12-04T08:23:29.922432", "MEAN_MOTION": 14.12602265, "ECCENTRICITY": 0.005573, "INCLINATION": 98.8081, "RA_OF_ASC_NODE": 17.0827, "ARG_OF_PERICENTER": 19.367, "MEAN_ANOMALY": 340.9603, "EPHEMERIS_TYPE": 0, "CLASSIFICATION_TYPE": "U", "NORAD_CAT_ID": 30753, "ELEMENT_SET_NO": 999, "REV_AT_EPOCH": 96233, "BSTAR": 0.0013417, "MEAN_MOTION_DOT": 2.477e-05, "MEAN_MOTION_DDOT": 0}, "tle": {"line1": "1 30753U 99025ATP 25338.34965188  .00002477  00000+0  13417-2 0  9995", "line2": "2 30753  98.8081  17.0827 0055730  19.3670 340.9603 14.12602265962332"}}, "geometry": {"type": "Point", "coordinates": [26.274686706719706, -42.45714040890128]}}, {"type": "Feature", "properties": {"norad_id": 30755, "name": "FENGYUN 1C DEB", "group": "fengyun-1c-debris", "lat": -51.45511966000692, "lon": -15.329314147614092, "alt_km": 645.7877889968759, "timestamp": "2025-12-05T09:41:19.408469+00:00", "meta": {"OBJECT_NAME": "FENGYUN 1C DEB", "OBJECT_ID": "1999-025ATR", "EPOCH": "2025-12-03T23:16:42.217248", "MEAN_MOTION": 14.44876312, "ECCENTRICITY": 0.01512113, "INCLINATION": 98.2571, "RA_OF_ASC_NODE": 332.7749, "ARG_OF_PERICENTER": 296.0064, "MEAN_ANOMALY": 117.8927, "EPHEMERIS_TYPE": 0, "CLASSIFICATION_TYPE": "U", "NORAD_CAT_ID": 30755, "ELEMENT_SET_NO": 999, "REV_AT_EPOCH": 98318, "BSTAR": 0.0014798293, "MEAN_MOTION_DOT": 5.88e-05, "MEAN_MOTION_DDOT": 0}, "tle": {"line1": "1 30755U 99025ATR 25337.96993307  .00005880  00000+0  14798-2 0  9992", "line2": "2 30755  98.2571 332.7749 0151211 296.0064 117.8927 14.44876312983181"}}, "geometry": {"type": "Point", "coordinates": [-15.329314147614092, -51.45511966000692]}}]}